NORAD_CAT_ID,OBJECT_NAME,OBJECT_TYPE,EPOCH,MEAN_MOTION,ECCENTRICITY,INCLINATION,RA_OF_ASC_NODE,ARG_OF_PERICENTER,MEAN_ANOMALY,BSTAR,MEAN_MOTION_DOT,MEAN_MOTION_DDOT,TLE_LINE0,TLE_LINE1,TLE_LINE2,SEMIMAJOR_AXIS,PERIOD,APOGEE,PERIGEE,DECAYED
55271.0,STARLINK-5306,PAYLOAD,2023-09-10 02:02:15,14.98332675,0.0002915,70.0012,183.0453,266.2801,93.8025,3.5607e-05,3.32e-06,0.0,0 STARLINK-5306,1 55271U 23010C   23253.08489818  .00000332  00000-0  35607-4 0  9990,2 55271  70.0012 183.0453 0002915 266.2801  93.8025 14.98332675 35922,6950.185,96.107,574.076,570.024,0.0
55271.0,STARLINK-5306,PAYLOAD,2023-09-10 06:50:39,14.98335557,0.0002856,70.0014,182.5403,266.6366,93.4466,6.2552e-05,6.54e-06,0.0,0 STARLINK-5306,1 55271U 23010C   23253.28517490  .00000654  00000-0  62552-4 0  9996,2 55271  70.0014 182.5403 0002856 266.6366  93.4466 14.98335557 36262,6950.176,96.107,574.026,570.056,0.0
55271.0,STARLINK-5306,PAYLOAD,2023-09-11 02:04:16,14.98323254,0.0002696,70.0019,180.5226,264.8369,95.2483,-1.2204e-05,-2.39e-06,0.0,0 STARLINK-5306,1 55271U 23010C   23254.08630572 -.00000239  00000-0 -12204-4 0  9992,2 55271  70.0019 180.5226 0002696 264.8369  95.2483 14.98323254 36072,6950.214,96.107,573.953,570.205,0.0
55271.0,STARLINK-5306,PAYLOAD,2023-09-11 06:52:40,14.98326451,0.0002725,70.0018,180.0176,265.6019,94.4829,2.2576e-05,1.76e-06,0.0,0 STARLINK-5306,1 55271U 23010C   23254.28658318  .00000176  00000-0  22576-4 0  9993,2 55271  70.0018 180.0176 0002725 265.6019  94.4829 14.98326451 36419,6950.204,96.107,573.963,570.175,0.0
55271.0,STARLINK-5306,PAYLOAD,2023-09-12 02:06:17,14.98312202,0.0002715,70.0017,177.9983,266.7576,93.3273,0.00048667,5.716e-05,0.0,0 STARLINK-5306,1 55271U 23010C   23255.08769831  .00005716  00000-0  48667-3 0  9998,2 55271  70.0017 177.9983 0002715 266.7576  93.3273 14.98312202 36227,6950.248,96.108,574.0,570.226,0.0
55271.0,STARLINK-5306,PAYLOAD,2023-09-12 05:18:33,14.98279798,0.0002399,70.0018,177.6609,268.2469,91.8416,0.0011338,0.00013443,0.0,0 STARLINK-5306,1 55271U 23010C   23255.22122452  .00013443  00000-0  11338-2 0  9996,2 55271  70.0018 177.6609 0002399 268.2469  91.8416 14.98279798 36242,6950.348,96.11,573.881,570.546,0.0
55271.0,STARLINK-5306,PAYLOAD,2023-09-12 18:07:37,14.98330299,0.0002521,70.0025,176.3145,277.5403,82.547,2.5558e-05,2.12e-06,0.0,0 STARLINK-5306,1 55271U 23010C   23255.75529870  .00000212  00000-0  25558-4 0  9990,2 55271  70.0025 176.3145 0002521 277.5403  82.5470 14.98330299 36329,6950.192,96.107,573.809,570.305,0.0
55271.0,STARLINK-5306,PAYLOAD,2023-09-12 21:19:53,14.98327284,0.0002628,70.0022,175.9781,270.4431,89.6427,7.9265e-05,8.53e-06,0.0,0 STARLINK-5306,1 55271U 23010C   23255.88881814  .00000853  00000-0  79265-4 0  9998,2 55271  70.0022 175.9781 0002628 270.4431  89.6427 14.98327284 36654,6950.201,96.107,573.893,570.24,0.0
55271.0,STARLINK-5306,PAYLOAD,2023-09-13 05:20:33,14.98333938,0.000244,70.0026,175.1379,260.1878,99.9006,0.00013759,1.549e-05,0.0,0 STARLINK-5306,1 55271U 23010C   23256.22261194  .00001549  00000-0  13759-3 0  9998,2 55271  70.0026 175.1379 0002440 260.1878  99.9006 14.98333938 36397,6950.181,96.107,573.742,570.35,0.0
55271.0,STARLINK-5306,PAYLOAD,2023-09-13 21:21:54,14.98331705,0.0002377,70.0035,173.4565,237.3403,122.7527,-5.528e-05,-7.52e-06,0.0,0 STARLINK-5306,1 55271U 23010C   23256.89021717 -.00000752  00000-0 -55280-4 0  9999,2 55271  70.0035 173.4565 0002377 237.3403 122.7527 14.98331705 36803,6950.188,96.107,573.705,570.401,0.0
55271.0,STARLINK-5306,PAYLOAD,2023-09-14 02:10:19,14.98328078,0.0002807,70.0018,172.9477,266.9178,93.166,-0.00012293,-1.559e-05,0.0,0 STARLINK-5306,1 55271U 23010C   23257.09050113 -.00001559  00000-0 -12293-3 0  9996,2 55271  70.0018 172.9477 0002807 266.9178  93.1660 14.98328078 36522,6950.199,96.107,574.015,570.113,0.0
55271.0,STARLINK-5306,PAYLOAD,2023-09-14 03:46:27,14.98328327,0.0002799,70.0019,172.7794,266.7638,93.3201,-0.00011715,-1.49e-05,0.0,0 STARLINK-5306,1 55271U 23010C   23257.15726091 -.00001490  00000-0 -11715-3 0  9990,2 55271  70.0019 172.7794 0002799 266.7638  93.3201 14.98328327 36847,6950.198,96.107,574.008,570.118,0.0
55271.0,STARLINK-5306,PAYLOAD,2023-09-14 21:23:56,14.98327894,0.0002912,70.0013,170.9279,265.4711,94.6116,-5.3591e-05,-7.32e-06,0.0,0 STARLINK-5306,1 55271U 23010C   23257.89162079 -.00000732  00000-0 -53591-4 0  9998,2 55271  70.0013 170.9279 0002912 265.4711  94.6116 14.98327894 36953,6950.199,96.107,574.088,570.041,0.0
55271.0,STARLINK-5306,PAYLOAD,2023-09-15 03:48:28,14.98331629,0.000299,70.0013,170.2545,267.6314,92.4503,-2.192e-05,-3.55e-06,0.0,0 STARLINK-5306,1 55271U 23010C   23258.15865812 -.00000355  00000-0 -21920-4 0  9995,2 55271  70.0013 170.2545 0002990 267.6314  92.4503 14.98331629 36688,6950.188,96.107,574.131,569.975,0.0
55271.0,STARLINK-5306,PAYLOAD,2023-09-16 03:50:28,14.98332901,0.0003058,70.0012,167.7301,267.8623,92.2185,0.00019619,2.249e-05,0.0,0 STARLINK-5306,1 55271U 23010C   23259.16005066  .00002249  00000-0  19619-3 0  9997,2 55271  70.0012 167.7301 0003058 267.8623  92.2185 14.98332901 36834,6950.184,96.107,574.174,569.924,0.0
55271.0,STARLINK-5306,PAYLOAD,2023-09-16 18:15:41,14.98327777,0.0002928,70.0013,166.2163,266.5236,93.5589,9.5711e-06,2.1e-07,0.0,0 STARLINK-5306,1 55271U 23010C   23259.76089896  .00000021  00000-0  95711-5 0  9991,2 55271  70.0013 166.2163 0002928 266.5236  93.5589 14.98327777 36923,6950.2,96.107,574.1,570.03,0.0
55271.0,STARLINK-5306,PAYLOAD,2023-09-17 03:52:30,14.98326736,0.0002812,70.0015,165.2061,265.643,94.4408,-6.0443e-06,-1.65e-06,0.0,0 STARLINK-5306,1 55271U 23010C   23260.16146007 -.00000165  00000-0 -60443-5 0  9990,2 55271  70.0015 165.2061 0002812 265.6430  94.4408 14.98326736 37294,6950.203,96.107,574.022,570.114,0.0
55271.0,STARLINK-5306,PAYLOAD,2023-09-17 18:17:42,14.98329834,0.0002392,70.0013,163.6913,265.027,95.0616,0.0001183,1.319e-05,0.0,0 STARLINK-5306,1 55271U 23010C   23260.76229417  .00001319  00000-0  11830-3 0  9997,2 55271  70.0013 163.6913 0002392 265.0270  95.0616 14.98329834 37075,6950.193,96.107,573.721,570.396,0.0
55271.0,STARLINK-5306,PAYLOAD,2023-09-18 03:54:30,14.98336542,0.0002596,70.0008,162.681,266.1304,93.9558,0.00014034,1.582e-05,0.0,0 STARLINK-5306,1 55271U 23010C   23261.16284852  .00001582  00000-0  14034-3 0  9997,2 55271  70.0008 162.6810 0002596 266.1304  93.9558 14.98336542 37447,6950.173,96.107,573.842,570.233,0.0
55271.0,STARLINK-5306,PAYLOAD,2023-09-18 18:19:43,14.9832717,0.0002643,70.0025,161.1683,265.8953,94.1904,0.00010157,1.119e-05,0.0,0 STARLINK-5306,1 55271U 23010C   23261.76369369  .00001119  00000-0  10157-3 0  9998,2 55271  70.0025 161.1683 0002643 265.8953  94.1904 14.98327170 37228,6950.202,96.107,573.904,570.23,0.0
55271.0,STARLINK-5306,PAYLOAD,2023-09-18 19:55:51,14.98327015,0.0002701,70.0024,160.9999,268.3567,91.7282,9.4441e-05,1.034e-05,0.0,0 STARLINK-5306,1 55271U 23010C   23261.83045416  .00001034  00000-0  94441-4 0  9995,2 55271  70.0024 160.9999 0002701 268.3567  91.7282 14.98327015 37543,6950.202,96.107,573.944,570.19,0.0
55271.0,STARLINK-5306,PAYLOAD,2023-09-19 18:21:43,14.98335744,0.0002742,70.0014,158.6427,256.5873,103.4981,6.6799e-06,-1.3e-07,0.0,0 STARLINK-5306,1 55271U 23010C   23262.76508800 -.00000013  00000-0  66799-5 0  9992,2 55271  70.0014 158.6427 0002742 256.5873 103.4981 14.98335744 37372,6950.175,96.107,573.946,570.134,0.0
55271.0,STARLINK-5306,PAYLOAD,2023-09-20 10:23:05,14.98333772,0.0001986,70.001,156.9566,280.5951,79.4985,-0.00027295,-3.348e-05,0.0,0 STARLINK-5306,1 55271U 23010C   23263.43269811 -.00003348  00000-0 -27295-3 0  9994,2 55271  70.0010 156.9566 0001986 280.5951  79.4985 14.98333772 37472,6950.181,96.107,573.427,570.666,0.0
55271.0,STARLINK-5306,PAYLOAD,2023-09-20 21:36:02,14.98316673,0.0002551,70.0019,155.7826,260.9187,99.1683,-0.00016074,-2.01e-05,0.0,0 STARLINK-5306,1 55271U 23010C   23263.90002608 -.00002010  00000-0 -16074-3 0  9993,2 55271  70.0019 155.7826 0002551 260.9187  99.1683 14.98316673 37856,6950.234,96.108,573.872,570.326,0.0
55271.0,STARLINK-5306,PAYLOAD,2023-09-21 02:24:26,14.98315237,0.0002598,70.0016,155.277,262.4495,97.6369,-0.00017083,-2.13e-05,0.0,0 STARLINK-5306,1 55271U 23010C   23264.10030891 -.00002130  00000-0 -17083-3 0  9995,2 55271  70.0016 155.2770 0002598 262.4495  97.6369 14.98315237 37574,6950.239,96.108,573.909,570.298,0.0
55271.0,STARLINK-5306,PAYLOAD,2023-09-21 16:49:38,14.98326965,0.0002798,70.001,153.7616,265.3571,94.7269,-1.568e-05,-2.8e-06,0.0,0 STARLINK-5306,1 55271U 23010C   23264.70114013 -.00000280  00000-0 -15680-4 0  9996,2 55271  70.0010 153.7616 0002798 265.3571  94.7269 14.98326965 37666,6950.202,96.107,574.012,570.123,0.0
55271.0,STARLINK-5306,PAYLOAD,2023-09-21 21:38:02,14.98327402,0.000272,70.0012,153.256,264.2232,95.8617,1.9787e-05,1.43e-06,0.0,0 STARLINK-5306,1 55271U 23010C   23264.90141938  .00000143  00000-0  19787-4 0  9992,2 55271  70.0012 153.2560 0002720 264.2232  95.8617 14.98327402 38003,6950.201,96.107,573.956,570.175,0.0
55271.0,STARLINK-5306,PAYLOAD,2023-09-22 02:26:26,14.98332244,0.0002892,70.0006,152.7498,264.3394,95.7436,5.3934e-05,5.51e-06,0.0,0 STARLINK-5306,1 55271U 23010C   23265.10169539  .00000551  00000-0  53934-4 0  9997,2 55271  70.0006 152.7498 0002892 264.3394  95.7436 14.98332244 37726,6950.186,96.107,574.061,570.041,0.0
55271.0,STARLINK-5306,PAYLOAD,2023-09-22 21:40:03,14.98327068,0.0003016,70.0004,150.7296,270.657,89.4244,0.00025595,2.962e-05,0.0,0 STARLINK-5306,1 55271U 23010C   23265.90281392  .00002962  00000-0  25595-3 0  9996,2 55271  70.0004 150.7296 0003016 270.6570  89.4244 14.98327068 38156,6950.202,96.107,574.163,569.971,0.0
55271.0,STARLINK-5306,PAYLOAD,2023-09-23 02:28:26,14.98334186,0.0003001,70.0004,150.2251,270.1051,89.9764,0.00027021,3.133e-05,0.0,0 STARLINK-5306,1 55271U 23010C   23266.10308899  .00003133  00000-0  27021-3 0  9998,2 55271  70.0004 150.2251 0003001 270.1051  89.9764 14.98334186 37874,6950.18,96.107,574.131,569.959,0.0
